ONEWEB-0199             
1 48234U 21031AA  25026.92595704  .00000167  00000+0  41680-3 0  9999
2 48234  87.8991  30.3516 0001652  92.4324 267.6995 13.14502564181758
ONEWEB-0203             
1 48235U 21031AB  25026.91644441  .00000261  00000+0  67029-3 0  9992
2 48235  87.8991  30.3556 0001720 102.9827 257.1495 13.14502938181769
ONEWEB-0197             
1 48236U 21031AC  25026.96797979 -.00000071  00000+0 -22519-3 0  9999
2 48236  87.8991  30.3561 0001692  80.2960 279.8361 13.14502713181685
ONEWEB-0194             
1 48237U 21031AD  25026.94656724 -.00000143  00000+0 -42030-3 0  9990
2 48237  87.8993  30.3550 0001637  96.9911 263.1404 13.14502833181851
ONEWEB-0193             
1 48238U 21031AE  25026.96242031 -.00000121  00000+0 -36168-3 0  9996
2 48238  87.8991  30.3598 0001884  93.4825 266.6520 13.14502178181806
ONEWEB-0191             
1 48239U 21031AF  25026.51681114  .00000116  00000+0  27705-3 0  9996
2 48239  87.8988  30.4253 0001873  92.5184 267.6160 13.14503959181605
ONEWEB-0195             
1 48240U 21031AG  25026.95053657 -.00000176  00000+0 -50861-3 0  9998
2 48240  87.8989  30.3371 0002261  92.0021 268.1367 13.14502848181640
ONEWEB-0201             
1 48241U 21031AH  25026.93943559 -.00000077  00000+0 -24107-3 0  9990
2 48241  87.8992  30.3816 0001961  87.3907 272.7447 13.14501433181879
